ONEWEB-0012             
1 44057U 19010A   25205.70627101  .00000050  00000+0  96842-4 0  9996
2 44057  87.9050 294.0778 0002440 108.5929 251.5467 13.16593249308501
ONEWEB-0010             
1 44058U 19010B   25205.50361811 -.00000048  00000+0 -15874-3 0  9992
2 44058  87.9049 294.1015 0002192  88.6613 271.4769 13.16595357308493
ONEWEB-0008             
1 44059U 19010C   25205.30095446  .00000096  00000+0  21670-3 0  9991
2 44059  87.9048 294.1403 0001817 102.7337 257.3997 13.16593310308581
ONEWEB-0007             
1 44060U 19010D   25205.60801909  .00000020  00000+0  18023-4 0  9991
2 44060  87.9088 324.5501 0002238  96.4042 263.7344 13.15549068308345
ONEWEB-0006             
1 44061U 19010E   25205.61196723  .00000142  00000+0  34239-3 0  9995
2 44061  87.9077 324.4929 0002101  93.7155 266.4216 13.15547913308357
ONEWEB-0011             
1 44062U 19010F   25205.35211898 -.00000098  00000+0 -29477-3 0  9998
2 44062  87.9081 324.5548 0001751  92.9962 267.1369 13.15547835308314
ONEWEB-0013             
1 45131U 20008A   25205.51675508  .00000662  00000+0  18865-2 0  9998
2 45131  87.8564 118.9823 0002318 102.4028 257.7358 13.09427682263186
ONEWEB-0017             
1 45132U 20008B   25205.42604109 -.00000568  00000+0 -16642-2 0  9996
2 45132  87.8808 101.6473 0001925  70.0021 290.1313 13.10371401265020
